NORAD_CAT_ID,OBJECT_NAME,OBJECT_TYPE,EPOCH,MEAN_MOTION,ECCENTRICITY,INCLINATION,RA_OF_ASC_NODE,ARG_OF_PERICENTER,MEAN_ANOMALY,BSTAR,MEAN_MOTION_DOT,MEAN_MOTION_DDOT,TLE_LINE0,TLE_LINE1,TLE_LINE2,SEMIMAJOR_AXIS,PERIOD,APOGEE,PERIGEE,DECAYED
52369.0,STARLINK-3841,PAYLOAD,2022-12-16 23:16:33,15.08830893,0.0002779,53.2167,80.6027,27.8388,332.2752,-5.0729e-05,-1.096e-05,0.0,0 STARLINK-3841,1 52369U 22045AQ  22350.96983687 -.00001096  00000-0 -50729-4 0  9991,2 52369  53.2167  80.6027 0002779  27.8388 332.2752 15.08830893 37970,6917.908,95.438,541.696,537.851,0.0
52369.0,STARLINK-3841,PAYLOAD,2022-12-17 10:24:15,15.08841941,0.0002788999999999,53.2175,78.52,25.4432,334.6696,0.00015816,2.23e-05,0.0,0 STARLINK-3841,1 52369U 22045AQ  22351.43351259  .00002230  00000-0  15816-3 0  9994,2 52369  53.2175  78.5200 0002789  25.4432 334.6696 15.08841941 38041,6917.874,95.437,541.669,537.81,0.0
52369.0,STARLINK-3841,PAYLOAD,2022-12-17 11:59:38,15.08844919,0.0002802,53.2179,78.2224,25.4621,334.6509,0.00015159,2.125e-05,0.0,0 STARLINK-3841,1 52369U 22045AQ  22351.49975143  .00002125  00000-0  15159-3 0  9997,2 52369  53.2179  78.2224 0002802  25.4621 334.6509 15.08844919 38056,6917.865,95.437,541.669,537.7919999999998,0.0
52369.0,STARLINK-3841,PAYLOAD,2022-12-17 13:35:01,15.08840456,0.000284,53.2168,77.9259,23.413,336.6991,7.237e-05,8.63e-06,0.0,0 STARLINK-3841,1 52369U 22045AQ  22351.56599274  .00000863  00000-0  72370-4 0  9998,2 52369  53.2168  77.9259 0002840  23.4130 336.6991 15.08840456 38063,6917.879,95.438,541.7090000000002,537.779,0.0
52369.0,STARLINK-3841,PAYLOAD,2022-12-18 05:28:53,15.08835362,0.0003172,53.2166,74.9518,24.1663,335.9477,1.2754e-05,-8.6e-07,0.0,0 STARLINK-3841,1 52369U 22045AQ  22352.22839787 -.00000086  00000-0  12754-4 0  9996,2 52369  53.2166  74.9518 0003172  24.1663 335.9477 15.08835362 38166,6917.895,95.438,541.9540000000002,537.565,0.0
52369.0,STARLINK-3841,PAYLOAD,2022-12-18 11:50:26,15.08832147,0.0002858,53.2176,73.7617,25.8185,334.295,-1.7869e-05,-5.73e-06,0.0,0 STARLINK-3841,1 52369U 22045AQ  22352.49336186 -.00000573  00000-0 -17869-4 0  9994,2 52369  53.2176  73.7617 0002858  25.8185 334.2950 15.08832147 38202,6917.904,95.438,541.747,537.7919999999998,0.0
52369.0,STARLINK-3841,PAYLOAD,2022-12-18 15:01:12,15.08833452,0.0002806,53.2173,73.1666,24.575,335.5376,-1.9975e-05,-6.06e-06,0.0,0 STARLINK-3841,1 52369U 22045AQ  22352.62584138 -.00000606  00000-0 -19975-4 0  9998,2 52369  53.2173  73.1666 0002806  24.5750 335.5376 15.08833452 38222,6917.9,95.438,541.707,537.8240000000002,0.0
52369.0,STARLINK-3841,PAYLOAD,2022-12-19 05:19:41,15.08833921,0.0003007,53.2184,70.4915,28.4696,331.646,7.1093e-05,8.43e-06,0.0,0 STARLINK-3841,1 52369U 22045AQ  22353.22200665  .00000843  00000-0  71093-4 0  9995,2 52369  53.2184  70.4915 0003007  28.4696 331.6460 15.08833921 38319,6917.899,95.438,541.844,537.684,0.0
52369.0,STARLINK-3841,PAYLOAD,2022-12-19 16:27:22,15.08845342,0.0003012,53.2184,68.41,26.5555,333.5591,0.0002047,2.971e-05,0.0,0 STARLINK-3841,1 52369U 22045AQ  22353.68568285  .00002971  00000-0  20470-3 0  9996,2 52369  53.2184  68.4100 0003012  26.5555 333.5591 15.08845342 38384,6917.864000000001,95.437,541.813,537.645,0.0
52369.0,STARLINK-3841,PAYLOAD,2022-12-19 22:48:55,15.08846378,0.0002809,53.2185,67.2208,29.8936,330.2217,0.00023477,3.451e-05,0.0,0 STARLINK-3841,1 52369U 22045AQ  22353.95064218  .00003451  00000-0  23477-3 0  9997,2 52369  53.2185  67.2208 0002809  29.8936 330.2217 15.08846378 38427,6917.861,95.437,541.669,537.783,0.0
52369.0,STARLINK-3841,PAYLOAD,2022-12-20 11:32:00,15.08862417,0.0003027,53.2181,64.8416,27.6328,332.4824,0.00059357,9.177e-05,0.0,0 STARLINK-3841,1 52369U 22045AQ  22354.48055586  .00009177  00000-0  59357-3 0  9991,2 52369  53.2181  64.8416 0003027  27.6328 332.4824 15.08862417 38500,6917.812,95.436,541.771,537.5830000000002,0.0
52369.0,STARLINK-3841,PAYLOAD,2022-12-21 05:01:14,15.08845952,0.0002853999999999,53.2182,61.5706,21.5162,338.5949,-3.4847e-05,-8.43e-06,0.0,0 STARLINK-3841,1 52369U 22045AQ  22355.20919601 -.00000843  00000-0 -34847-4 0  9990,2 52369  53.2182  61.5706 0002854  21.5162 338.5949 15.08845952 38615,6917.861999999999,95.437,541.702,537.753,0.0
52369.0,STARLINK-3841,PAYLOAD,2022-12-21 09:47:24,15.08838968,0.0003027,53.2182,60.6788,20.9949,339.1167,-1.3552000000000002e-06,-3.1e-06,0.0,0 STARLINK-3841,1 52369U 22045AQ  22355.40791670 -.00000310  00000-0 -13552-5 0  9996,2 52369  53.2182  60.6788 0003027  20.9949 339.1167 15.08838968 38645,6917.884,95.438,541.8430000000002,537.655,0.0
52369.0,STARLINK-3841,PAYLOAD,2022-12-22 04:52:02,15.0883188,0.0003137,53.218,57.1109,21.2316,338.8806,-1.6716e-06,-3.15e-06,0.0,0 STARLINK-3841,1 52369U 22045AQ  22356.20280620 -.00000315  00000-0 -16716-5 0  9993,2 52369  53.2180  57.1109 0003137  21.2316 338.8806 15.08831880 38760,6917.905,95.438,541.94,537.6,0.0
52369.0,STARLINK-3841,PAYLOAD,2022-12-22 11:13:34,15.08839173,0.000311,53.2181,55.9217,22.1224,337.9902,0.00024791,3.659e-05,0.0,0 STARLINK-3841,1 52369U 22045AQ  22356.46776545  .00003659  00000-0  24791-3 0  9999,2 52369  53.2181  55.9217 0003110  22.1224 337.9902 15.08839173 38801,6917.8830000000025,95.438,541.899,537.596,0.0
52369.0,STARLINK-3841,PAYLOAD,2022-12-23 11:04:22,15.08831086,0.0003172,53.2176,51.46,20.6434,339.4686,0.000144,2.003e-05,0.0,0 STARLINK-3841,1 52369U 22045AQ  22357.46137462  .00002003  00000-0  14400-3 0  9997,2 52369  53.2176  51.4600 0003172  20.6434 339.4686 15.08831086 38953,6917.908,95.438,541.967,537.578,0.0
52369.0,STARLINK-3841,PAYLOAD,2022-12-24 04:33:37,15.08846245,0.000325,53.2179,48.19,22.4962,337.6172,0.00034077,5.14e-05,0.0,0 STARLINK-3841,1 52369U 22045AQ  22358.19001240  .00005140  00000-0  34077-3 0  9999,2 52369  53.2179  48.1900 0003250  22.4962 337.6172 15.08846245 39061,6917.861,95.437,541.975,537.4780000000002,0.0
52369.0,STARLINK-3841,PAYLOAD,2022-12-24 20:27:28,15.08849889,0.0003113,53.217,45.215,23.5832,336.5303,0.00037718,5.721e-05,0.0,0 STARLINK-3841,1 52369U 22045AQ  22358.85240987  .00005721  00000-0  37718-3 0  9995,2 52369  53.2170  45.2150 0003113  23.5832 336.5303 15.08849889 39165,6917.85,95.437,541.869,537.562,0.0
52369.0,STARLINK-3841,PAYLOAD,2022-12-25 04:24:23,15.088474,0.000324,53.2168,43.7282,25.9838,334.1317,0.00022827,3.347e-05,0.0,0 STARLINK-3841,1 52369U 22045AQ  22359.18361003  .00003347  00000-0  22827-3 0  9992,2 52369  53.2168  43.7282 0003240  25.9838 334.1317 15.08847400 39216,6917.858,95.437,541.964,537.481,0.0
52369.0,STARLINK-3841,PAYLOAD,2022-12-25 12:21:19,15.08840458,0.0002992,53.2173,42.2425,20.2685,339.8426,8.6241e-05,1.084e-05,0.0,0 STARLINK-3841,1 52369U 22045AQ  22359.51481163  .00001084  00000-0  86241-4 0  9996,2 52369  53.2173  42.2425 0002992  20.2685 339.8426 15.08840458 39260,6917.879,95.438,541.814,537.674,0.0
52369.0,STARLINK-3841,PAYLOAD,2022-12-25 20:18:15,15.0883491,0.0003115,53.2169,40.7557,22.2606,337.8521,-6.0219e-05,-1.247e-05,0.0,0 STARLINK-3841,1 52369U 22045AQ  22359.84601435 -.00001247  00000-0 -60219-4 0  9998,2 52369  53.2169  40.7557 0003115  22.2606 337.8521 15.08834910 39313,6917.896,95.438,541.9159999999998,537.606,0.0
52369.0,STARLINK-3841,PAYLOAD,2022-12-26 12:12:06,15.08847135,0.00032,53.2174,37.7823,22.1228,337.9901,0.00023456,3.447e-05,0.0,0 STARLINK-3841,1 52369U 22045AQ  22360.50841160  .00003447  00000-0  23456-3 0  9997,2 52369  53.2174  37.7823 0003200  22.1228 337.9901 15.08847135 39412,6917.859,95.437,541.937,537.51,0.0
52369.0,STARLINK-3841,PAYLOAD,2022-12-26 20:09:02,15.08841823,0.0003247,53.2173,36.2951,25.3419,334.7731,0.00015816,2.23e-05,0.0,0 STARLINK-3841,1 52369U 22045AQ  22360.83961531  .00002230  00000-0  15816-3 0  9998,2 52369  53.2173  36.2951 0003247  25.3419 334.7731 15.08841823 39464,6917.875,95.437,541.986,537.494,0.0
52369.0,STARLINK-3841,PAYLOAD,2022-12-26 23:19:48,15.08844238,0.0003178,53.2181,35.7002,20.7305,339.3815,0.00021637,3.157e-05,0.0,0 STARLINK-3841,1 52369U 22045AQ  22360.97209347  .00003157  00000-0  21637-3 0  9990,2 52369  53.2181  35.7002 0003178  20.7305 339.3815 15.08844238 39489,6917.8669999999975,95.437,541.931,537.534,0.0
52369.0,STARLINK-3841,PAYLOAD,2022-12-27 12:02:53,15.088615099999998,0.000316,53.2169,33.3203,24.2472,335.8668,0.00054079,8.334e-05,0.0,0 STARLINK-3841,1 52369U 22045AQ  22361.50200569  .00008334  00000-0  54079-3 0  9995,2 52369  53.2169  33.3203 0003160  24.2472 335.8668 15.08861510 39565,6917.815,95.436,541.866,537.494,0.0
52369.0,STARLINK-3841,PAYLOAD,2022-12-28 11:53:40,15.08845212,0.0003795,53.2178,28.8612,21.5066,338.6085,-3.1565e-05,-7.92e-06,0.0,0 STARLINK-3841,1 52369U 22045AQ  22362.49560328 -.00000792  00000-0 -31565-4 0  9994,2 52369  53.2178  28.8612 0003795  21.5066 338.6085 15.08845212 39713,6917.864000000001,95.437,542.355,537.104,0.0
52369.0,STARLINK-3841,PAYLOAD,2022-12-29 02:12:08,15.08832364,0.0002897,53.2173,26.1828,42.8875,317.2343,-0.00017354,-3.049e-05,0.0,0 STARLINK-3841,1 52369U 22045AQ  22363.09176653 -.00003049  00000-0 -17354-3 0  9992,2 52369  53.2173  26.1828 0002897  42.8875 317.2343 15.08832364 39808,6917.904,95.438,541.773,537.765,0.0
52369.0,STARLINK-3841,PAYLOAD,2022-12-29 11:44:28,15.08825747,0.000333,53.2171,24.4015,22.9029,337.2111,-0.00028116,-4.759e-05,0.0,0 STARLINK-3841,1 52369U 22045AQ  22363.48921799 -.00004759  00000-0 -28116-3 0  9991,2 52369  53.2171  24.4015 0003330  22.9029 337.2111 15.08825747 39866,6917.924,95.438,542.0930000000002,537.485,0.0
52369.0,STARLINK-3841,PAYLOAD,2022-12-30 08:24:29,15.08841443,0.0003296,53.2178,20.5354,21.2572,338.8556,0.00036693,5.557e-05,0.0,0 STARLINK-3841,1 52369U 22045AQ  22364.35033866  .00005557  00000-0  36693-3 0  9991,2 52369  53.2178  20.5354 0003296  21.2572 338.8556 15.08841443 39997,6917.876,95.437,542.021,537.461,0.0
